[{"OBJECT_NAME":"STARLINK-2100","OBJECT_ID":"2021-005AH","EPOCH":"2026-03-09T22:00:01.999584","MEAN_MOTION":15.12103699,"ECCENTRICITY":0.00010124,"INCLINATION":53.0532,"RA_OF_ASC_NODE":30.5302,"ARG_OF_PERICENTER":95.6888,"MEAN_ANOMALY":202.9615,"EPHEMERIS_TYPE":0,"CLASSIFICATION_TYPE":"U","NORAD_CAT_ID":47380,"ELEMENT_SET_NO":999,"REV_AT_EPOCH":577,"BSTAR":0.078295115,"MEAN_MOTION_DOT":0.014974,"MEAN_MOTION_DDOT":0},{"OBJECT_NAME":"SPACEMOBILE-004 DEB","OBJECT_ID":"2024-163J","EPOCH":"2026-03-09T22:05:47.775840","MEAN_MOTION":15.36798539,"ECCENTRICITY":0.00043505,"INCLINATION":52.9881,"RA_OF_ASC_NODE":19.7177,"ARG_OF_PERICENTER":191.7611,"MEAN_ANOMALY":168.329,"EPHEMERIS_TYPE":0,"CLASSIFICATION_TYPE":"U","NORAD_CAT_ID":62372,"ELEMENT_SET_NO":999,"REV_AT_EPOCH":7967,"BSTAR":0.00061559408,"MEAN_MOTION_DOT":0.00022146,"MEAN_MOTION_DDOT":0}]
